{
    "links": {
        "self": "http://www.neowsapp.com/rest/v1/neo/3692746?api_key=iIulBulltgU6a56xZRHN4H3l9WmuAYTsLGpBGhQ2"
    },
    "id": "3692746",
    "neo_reference_id": "3692746",
    "name": "(2014 TH17)",
    "designation": "2014 TH17",
    "nasa_jpl_url": "http://ssd.jpl.nasa.gov/sbdb.cgi?sstr=3692746",
    "absolute_magnitude_h": 26.7,
    "estimated_diameter": {
        "kilometers": {
            "estimated_diameter_min": 0.0121494041,
            "estimated_diameter_max": 0.0271668934
        },
        "meters": {
            "estimated_diameter_min": 12.14940408,
            "estimated_diameter_max": 27.1668934089
        },
        "miles": {
            "estimated_diameter_min": 0.0075492874,
            "estimated_diameter_max": 0.0168807197
        },
        "feet": {
            "estimated_diameter_min": 39.8602508817,
            "estimated_diameter_max": 89.1302305717
        }
    },
    "is_potentially_hazardous_asteroid": false,
    "close_approach_data": [
        {
            "close_approach_date": "1927-10-29",
            "close_approach_date_full": "1927-Oct-29 10:42",
            "epoch_date_close_approach": -1330953480000,
            "relative_velocity": {
                "kilometers_per_second": "16.6584965053",
                "kilometers_per_hour": "59970.58741895",
                "miles_per_hour": "37263.3908326248"
            },
            "miss_distance": {
                "astronomical": "0.297389491",
                "lunar": "115.684511999",
                "kilometers": "44488834.41398417",
                "miles": "27644079.831834746"
            },
            "orbiting_body": "Earth"
        },
        {
            "close_approach_date": "2014-09-29",
            "close_approach_date_full": "2014-Sep-29 02:00",
            "epoch_date_close_approach": 1411956000000,
            "relative_velocity": {
                "kilometers_per_second": "8.8380596789",
                "kilometers_per_hour": "31817.0148440419",
                "miles_per_hour": "19769.8556957326"
            },
            "miss_distance": {
                "astronomical": "0.0291640301",
                "lunar": "11.3448077089",
                "kilometers": "4362876.783575887",
                "miles": "2710965.9241537606"
            },
            "orbiting_body": "Earth"
        }
    ],
    "orbital_data": {
        "orbit_id": "3",
        "orbit_determination_date": "2017-04-06 08:38:14",
        "first_observation_date": "2014-10-02",
        "last_observation_date": "2014-10-04",
        "data_arc_in_days": 2,
        "observations_used": 27,
        "orbit_uncertainty": "8",
        "minimum_orbit_intersection": ".0282562",
        "jupiter_tisserand_invariant": "3.357",
        "epoch_osculation": "2456933.5",
        "eccentricity": ".5560911141453676",
        "semi_major_axis": "2.299947668791372",
        "inclination": "8.047196877481113",
        "ascending_node_longitude": "9.715989377834461",
        "orbital_period": "1274.01739770201",
        "perihelion_distance": "1.020967207177137",
        "perihelion_argument": "344.0304601767567",
        "aphelion_distance": "3.578928130405607",
        "perihelion_time": "2456919.822296087817",
        "mean_anomaly": "3.864918498968243",
        "mean_motion": ".2825707095125581",
        "equinox": "J2000",
        "orbit_class": {
            "orbit_class_type": "AMO",
            "orbit_class_description": "Near-Earth asteroid orbits similar to that of 1221 Amor",
            "orbit_class_range": "1.017 AU < q (perihelion) < 1.3 AU"
        }
    },
    "is_sentry_object": false
}